[{"OBJECT_NAME":"ONEWEB-0391","OBJECT_ID":"2021-132C","EPOCH":"2026-03-09T21:03:44.229600","MEAN_MOTION":13.17649662,"ECCENTRICITY":0.00019766,"INCLINATION":87.9151,"RA_OF_ASC_NODE":25.5986,"ARG_OF_PERICENTER":54.8205,"MEAN_ANOMALY":305.3111,"EPHEMERIS_TYPE":0,"CLASSIFICATION_TYPE":"U","NORAD_CAT_ID":50471,"ELEMENT_SET_NO":999,"REV_AT_EPOCH":20500,"BSTAR":0.00011468789,"MEAN_MOTION_DOT":5.7e-7,"MEAN_MOTION_DDOT":0},{"OBJECT_NAME":"SL-14 DEB","OBJECT_ID":"1991-056DD","EPOCH":"2026-02-22T02:50:15.122976","MEAN_MOTION":13.24730307,"ECCENTRICITY":0.0033433,"INCLINATION":82.5458,"RA_OF_ASC_NODE":201.7449,"ARG_OF_PERICENTER":282.2949,"MEAN_ANOMALY":77.4435,"EPHEMERIS_TYPE":0,"CLASSIFICATION_TYPE":"U","NORAD_CAT_ID":47079,"ELEMENT_SET_NO":999,"REV_AT_EPOCH":25649,"BSTAR":0.0013771,"MEAN_MOTION_DOT":6.08e-6,"MEAN_MOTION_DDOT":0}]
